[{"OBJECT_NAME":"STARLINK-34964","OBJECT_ID":"2025-179E","EPOCH":"2026-03-09T16:34:15.186720","MEAN_MOTION":15.05664519,"ECCENTRICITY":0.00012328,"INCLINATION":97.6023,"RA_OF_ASC_NODE":112.8903,"ARG_OF_PERICENTER":134.1266,"MEAN_ANOMALY":226.0062,"EPHEMERIS_TYPE":0,"CLASSIFICATION_TYPE":"U","NORAD_CAT_ID":65239,"ELEMENT_SET_NO":999,"REV_AT_EPOCH":3181,"BSTAR":0.00028840105,"MEAN_MOTION_DOT":4.105e-5,"MEAN_MOTION_DDOT":0},{"OBJECT_NAME":"CZ-3B R\/B","OBJECT_ID":"2006-048B","EPOCH":"2026-03-09T20:04:22.260000","MEAN_MOTION":6.89898407,"ECCENTRICITY":0.40504328,"INCLINATION":28.2211,"RA_OF_ASC_NODE":240.4603,"ARG_OF_PERICENTER":59.0777,"MEAN_ANOMALY":334.6093,"EPHEMERIS_TYPE":0,"CLASSIFICATION_TYPE":"U","NORAD_CAT_ID":29517,"ELEMENT_SET_NO":999,"REV_AT_EPOCH":38698,"BSTAR":0.00021081554,"MEAN_MOTION_DOT":1.34e-6,"MEAN_MOTION_DDOT":0}]
